HST                     
1 20580U 90037B   26061.37345004  .00009122  00000+0  30343-3 0  9994
2 20580  28.4700  89.9045 0001638  52.0942 307.9801 15.29345912772198
POLAR                   
1 23802U 96013A   26060.20583977  .00000203  00000+0  00000+0 0  9992
2 23802  79.7390 228.2850 6360740 212.7396  83.5774  1.29845822143457
SWAS                    
1 25560U 98071A   26061.64025758  .00005793  00000+0  37385-3 0  9997
2 25560  69.8971 142.1245 0003362  25.2751 334.8577 15.08810310481192
CXO                     
1 25867U 99040B   26063.59985680  .00000824  00000+0  00000+0 0  9999
2 25867  54.4843 119.7682 8003286 310.7757   0.4217  0.37808937 16926
XMM-NEWTON              
1 25989U 99066A   26061.64181856  .00000062  00000+0  00000+0 0  9993
2 25989  65.0189 284.3763 4712552  66.8130 359.9781  0.50131664 22470
TERRA                   
1 25994U 99068A   26061.80781814  .00000548  00000+0  12082-3 0  9995
2 25994  97.9608 115.5050 0002235 168.5808 303.7174 14.61006057394073
CLUSTER II-FM7 (SAMBA)  
1 26410U 00041A   26063.25310773  .00003639  00000+0  00000+0 0  9992
2 26410 148.9920  34.5676 8908777 250.6745 359.7226  0.44785609 19832
CLUSTER II-FM8 (TANGO)  
1 26464U 00045B   26049.06287974  .00004776  00000+0  00000+0 0  9997
2 26464 149.0711  33.5376 8890045 249.4570 359.4916  0.44405995 19769
ODIN                    
1 26702U 01007A   26061.66302508  .00044529  00000+0  59624-3 0  9992
2 26702  97.4088  97.4234 0004008 157.2018 202.9416 15.57871803372742
TIMED                   
1 26998U 01055B   26061.48577831  .00001612  00000+0  15100-3 0  9992
2 26998  74.0660  89.8202 0002929 283.7118  76.3741 14.94995763314878
CORIOLIS                
1 27640U 03001A   26061.58250759  .00000178  00000+0  10414-3 0  9997
2 27640  98.7160  70.0832 0014453 156.0865 204.0985 14.19909497199099
SORCE                   
1 27651U 03004A   26061.65624907  .00004531  00000+0  34049-3 0  9997
2 27651  39.9904 149.1890 0016843   2.4266 357.6607 15.03033305255864
MOST                    
1 27843U 03031D   26061.62976515  .00000109  00000+0  70153-4 0  9996
2 27843  98.7081  70.8286 0009542 193.9657 166.1258 14.21296936175577
SCISAT 1                
1 27858U 03036A   26061.59169512  .00001165  00000+0  15391-3 0  9999
2 27858  73.9312  23.1119 0005912 117.8675 242.3101 14.81294228215660
SWIFT                   
1 28485U 04047A   26061.69835141  .00045631  00000+0  55791-3 0  9992
2 28485  20.5530 280.3797 0002913 300.5400  59.4756 15.58589795170171
HINODE (SOLAR-B)        
1 29479U 06041A   26061.62137781  .00000855  00000+0  15590-3 0  9992
2 29479  98.0629  79.3187 0016116 265.8222  94.1141 14.68460178 39236
SHIJIAN-6 02A (SJ-6 02A)
1 29505U 06046A   26061.84527907  .00006534  00000+0  34777-3 0  9992
2 29505  97.6513 102.1379 0004260 130.5612 229.5992 15.15575496 56150
